{"type": "FeatureCollection", "features": [ {"type": "Feature", "properties": {"norad_id": 34732, "name": "COSMOS 2251 DEB", "group": "cosmos-2251-debris", "lat": 45.10055125550682, "lon": -86.82107804233723, "alt_km": 748.7685992337374, "timestamp": "2025-12-03T19:33:07.372336+00:00", "meta": {"OBJECT_NAME": "COSMOS 2251 DEB", "OBJECT_ID": "1993-036ZA", "EPOCH": "2025-12-03T09:07:42.087072", "MEAN_MOTION": 14.47282571, "ECCENTRICITY": 0.0040498, "INCLINATION": 74.0444, "RA_OF_ASC_NODE": 110.6746, "ARG_OF_PERICENTER": 263.4113, "MEAN_ANOMALY": 127.4315, "EPHEMERIS_TYPE": 0, "CLASSIFICATION_TYPE": "U", "NORAD_CAT_ID": 34732, "ELEMENT_SET_NO": 999, "REV_AT_EPOCH": 88008, "BSTAR": 0.00023794, "MEAN_MOTION_DOT": 8.51e-06, "MEAN_MOTION_DDOT": 0}, "tle": {"line1": "1 34732U 93036ZA  25337.38034823  .00000851  00000+0  23794-3 0  9992", "line2": "2 34732  74.0444 110.6746 0040498 263.4113 127.4315 14.47282571880082"}}, "geometry": {"type": "Point", "coordinates": [-86.82107804233723, 45.10055125550682]}}, {"type": "Feature", "properties": {"norad_id": 34736, "name": "COSMOS 2251 DEB", "group": "cosmos-2251-debris", "lat": 51.34212842936867, "lon": 76.67076580977049, "alt_km": 438.18592436240306, "timestamp": "2025-12-03T19:33:07.372346+00:00", "meta": {"OBJECT_NAME": "COSMOS 2251 DEB", "OBJECT_ID": "1993-036ZE", "EPOCH": "2025-12-03T11:31:02.741376", "MEAN_MOTION": 15.39011018, "ECCENTRICITY": 0.0015195, "INCLINATION": 74.005, "RA_OF_ASC_NODE": 56.3805, "ARG_OF_PERICENTER": 354.5082, "MEAN_ANOMALY": 5.5955, "EPHEMERIS_TYPE": 0, "CLASSIFICATION_TYPE": "U", "NORAD_CAT_ID": 34736, "ELEMENT_SET_NO": 999, "REV_AT_EPOCH": 88305, "BSTAR": 0.0095149, "MEAN_MOTION_DOT": 0.0038811, "MEAN_MOTION_DDOT": 0}, "tle": {"line1": "1 34736U 93036ZE  25337.47989284  .00388110  00000+0  95149-2 0  9995", "line2": "2 34736  74.0050  56.3805 0015195 354.5082   5.5955 15.39011018883058"}}, "geometry": {"type": "Point", "coordinates": [76.67076580977049, 51.34212842936867]}}, {"type": "Feature", "properties": {"norad_id": 34738, "name": "COSMOS 2251 DEB", "group": "cosmos-2251-debris", "lat": -16.28651877166791, "lon": -15.248981523006664, "alt_km": 754.248432123276, "timestamp": "2025-12-03T19:33:07.372356+00:00", "meta": {"OBJECT_NAME": "COSMOS 2251 DEB", "OBJECT_ID": "1993-036ZG", "EPOCH": "2025-12-03T12:08:22.384032", "MEAN_MOTION": 14.46266805, "ECCENTRICITY": 0.0047139, "INCLINATION": 74.0141, "RA_OF_ASC_NODE": 160.5237, "ARG_OF_PERICENTER": 308.5381, "MEAN_ANOMALY": 81.3988, "EPHEMERIS_TYPE": 0, "CLASSIFICATION_TYPE": "U", "NORAD_CAT_ID": 34738, "ELEMENT_SET_NO": 999, "REV_AT_EPOCH": 87725, "BSTAR": 0.00041506, "MEAN_MOTION_DOT": 1.479e-05, "MEAN_MOTION_DDOT": 0}, "tle": {"line1": "1 34738U 93036ZG  25337.50581463  .00001479  00000+0  41506-3 0  9997", "line2": "2 34738  74.0141 160.5237 0047139 308.5381  81.3988 14.46266805877258"}}, "geometry": {"type": "Point", "coordinates": [-15.248981523006664, -16.28651877166791]}}, {"type": "Feature", "properties": {"norad_id": 34750, "name": "COSMOS 2251 DEB", "group": "cosmos-2251-debris", "lat": -52.17595701132716, "lon": 60.26837662997783, "alt_km": 682.1560533483662, "timestamp": "2025-12-03T19:33:07.372365+00:00", "meta": {"OBJECT_NAME": "COSMOS 2251 DEB", "OBJECT_ID": "1993-036ZU", "EPOCH": "2025-12-03T09:10:04.253088", "MEAN_MOTION": 14.61168137, "ECCENTRICITY": 0.0039303, "INCLINATION": 74.1086, "RA_OF_ASC_NODE": 219.5638, "ARG_OF_PERICENTER": 175.784, "MEAN_ANOMALY": 303.9488, "EPHEMERIS_TYPE": 0, "CLASSIFICATION_TYPE": "U", "NORAD_CAT_ID": 34750, "ELEMENT_SET_NO": 999, "REV_AT_EPOCH": 88094, "BSTAR": 0.0014193, "MEAN_MOTION_DOT": 7.042e-05, "MEAN_MOTION_DDOT": 0}, "tle": {"line1": "1 34750U 93036ZU  25337.38199367  .00007042  00000+0  14193-2 0  9998", "line2": "2 34750  74.1086 219.5638 0039303 175.7840 303.9488 14.61168137880943"}}, "geometry": {"type": "Point", "coordinates": [60.26837662997783, -52.17595701132716]}}, {"type": "Feature", "properties": {"norad_id": 34752, "name": "COSMOS 2251 DEB", "group": "cosmos-2251-debris", "lat": -37.92375274782668, "lon": -148.3275082458112, "alt_km": 562.2703588211643, "timestamp": "2025-12-03T19:33:07.372375+00:00", "meta": {"OBJECT_NAME": "COSMOS 2251 DEB", "OBJECT_ID": "1993-036ZW", "EPOCH": "2025-12-03T04:10:08.232096", "MEAN_MOTION": 14.99566625, "ECCENTRICITY": 0.0048429, "INCLINATION": 74.0143, "RA_OF_ASC_NODE": 20.0691, "ARG_OF_PERICENTER": 151.748, "MEAN_ANOMALY": 208.635, "EPHEMERIS_TYPE": 0, "CLASSIFICATION_TYPE": "U", "NORAD_CAT_ID": 34752, "ELEMENT_SET_NO": 999, "REV_AT_EPOCH": 89706, "BSTAR": 0.0011618, "MEAN_MOTION_DOT": 0.00014635, "MEAN_MOTION_DDOT": 0}, "tle": {"line1": "1 34752U 93036ZW  25337.17370639  .00014635  00000+0  11618-2 0  9995", "line2": "2 34752  74.0143  20.0691 0048429 151.7480 208.6350 14.99566625897060"}}, "geometry": {"type": "Point", "coordinates": [-148.3275082458112, -37.92375274782668]}}, {"type": "Feature", "properties": {"norad_id": 34754, "name": "COSMOS 2251 DEB", "group": "cosmos-2251-debris", "lat": -59.64908551104556, "lon": -145.16607300062526, "alt_km": 755.1912918515663, "timestamp": "2025-12-03T19:33:07.372385+00:00", "meta": {"OBJECT_NAME": "COSMOS 2251 DEB", "OBJECT_ID": "1993-036ZY", "EPOCH": "2025-12-03T12:21:10.677024", "MEAN_MOTION": 14.4045901, "ECCENTRICITY": 0.002917, "INCLINATION": 74.0309, "RA_OF_ASC_NODE": 244.6652, "ARG_OF_PERICENTER": 2.6799, "MEAN_ANOMALY": 178.9624, "EPHEMERIS_TYPE": 0, "CLASSIFICATION_TYPE": "U", "NORAD_CAT_ID": 34754, "ELEMENT_SET_NO": 999, "REV_AT_EPOCH": 88000, "BSTAR": 0.00033766, "MEAN_MOTION_DOT": 1.052e-05, "MEAN_MOTION_DDOT": 0}, "tle": {"line1": "1 34754U 93036ZY  25337.51470691  .00001052  00000+0  33766-3 0  9992", "line2": "2 34754  74.0309 244.6652 0029170   2.6799 178.9624 14.40459010880000"}}, "geometry": {"type": "Point", "coordinates": [-145.16607300062526, -59.64908551104556]}}, {"type": "Feature", "properties": {"norad_id": 34755, "name": "COSMOS 2251 DEB", "group": "cosmos-2251-debris", "lat": 53.125735371549425, "lon": -33.02011786134207, "alt_km": 1056.2954500243723, "timestamp": "2025-12-03T19:33:07.372395+00:00", "meta": {"OBJECT_NAME": "COSMOS 2251 DEB", "OBJECT_ID": "1993-036ZZ", "EPOCH": "2025-11-28T15:26:25.154880", "MEAN_MOTION": 13.50483978, "ECCENTRICITY": 0.04082229, "INCLINATION": 73.9254, "RA_OF_ASC_NODE": 312.682, "ARG_OF_PERICENTER": 334.9897, "MEAN_ANOMALY": 144.2013, "EPHEMERIS_TYPE": 0, "CLASSIFICATION_TYPE": "U", "NORAD_CAT_ID": 34755, "ELEMENT_SET_NO": 999, "REV_AT_EPOCH": 82333, "BSTAR": 0.001766679, "MEAN_MOTION_DOT": 1.881e-05, "MEAN_MOTION_DDOT": 0}, "tle": {"line1": "1 34755U 93036ZZ  25332.64334670  .00001881  00000+0  17667-2 0  9999", "line2": "2 34755  73.9254 312.6820 0408222 334.9897 144.2013 13.50483978823331"}}, "geometry": {"type": "Point", "coordinates": [-33.02011786134207, 53.125735371549425]}}, {"type": "Feature", "properties": {"norad_id": 34756, "name": "COSMOS 2251 DEB", "group": "cosmos-2251-debris", "lat": 34.09627703711625, "lon": -72.15183861403565, "alt_km": 1218.8959159711349, "timestamp": "2025-12-03T19:33:07.372405+00:00", "meta": {"OBJECT_NAME": "COSMOS 2251 DEB", "OBJECT_ID": "1993-036AAA", "EPOCH": "2025-12-02T16:31:05.981088", "MEAN_MOTION": 13.67210106, "ECCENTRICITY": 0.0344553, "INCLINATION": 74.0021, "RA_OF_ASC_NODE": 120.8981, "ARG_OF_PERICENTER": 358.9057, "MEAN_ANOMALY": 1.1264, "EPHEMERIS_TYPE": 0, "CLASSIFICATION_TYPE": "U", "NORAD_CAT_ID": 34756, "ELEMENT_SET_NO": 999, "REV_AT_EPOCH": 83284, "BSTAR": 0.0010550911, "MEAN_MOTION_DOT": 1.312e-05, "MEAN_MOTION_DDOT": 0}, "tle": {"line1": "1 34756U 93036AAA 25336.68826367  .00001312  00000+0  10551-2 0  9991", "line2": "2 34756  74.0021 120.8981 0344553 358.9057   1.1264 13.67210106832847"}}, "geometry": {"type": "Point", "coordinates": [-72.15183861403565, 34.09627703711625]}}, {"type": "Feature", "properties": {"norad_id": 34758, "name": "COSMOS 2251 DEB", "group": "cosmos-2251-debris", "lat": -13.024723462153869, "lon": 137.63901781715822, "alt_km": 1151.3351207244223, "timestamp": "2025-12-03T19:33:07.372415+00:00", "meta": {"OBJECT_NAME": "COSMOS 2251 DEB", "OBJECT_ID": "1993-036AAC", "EPOCH": "2025-12-02T23:11:46.563360", "MEAN_MOTION": 13.58027856, "ECCENTRICITY": 0.03806607, "INCLINATION": 74.1072, "RA_OF_ASC_NODE": 315.2248, "ARG_OF_PERICENTER": 81.3008, "MEAN_ANOMALY": 283.1017, "EPHEMERIS_TYPE": 0, "CLASSIFICATION_TYPE": "U", "NORAD_CAT_ID": 34758, "ELEMENT_SET_NO": 999, "REV_AT_EPOCH": 82777, "BSTAR": 0.0012020965, "MEAN_MOTION_DOT": 1.376e-05, "MEAN_MOTION_DDOT": 0}, "tle": {"line1": "1 34758U 93036AAC 25336.96651115  .00001376  00000+0  12021-2 0  9995", "line2": "2 34758  74.1072 315.2248 0380660  81.3008 283.1017 13.58027856827776"}}, "geometry": {"type": "Point", "coordinates": [137.63901781715822, -13.024723462153869]}}, {"type": "Feature", "properties": {"norad_id": 34760, "name": "COSMOS 2251 DEB", "group": "cosmos-2251-debris", "lat": -73.06999717447636, "lon": -151.8737070306233, "alt_km": 855.0300230659477, "timestamp": "2025-12-03T19:33:07.372425+00:00", "meta": {"OBJECT_NAME": "COSMOS 2251 DEB", "OBJECT_ID": "1993-036AAE", "EPOCH": "2025-12-02T15:48:08.179200", "MEAN_MOTION": 14.19524364, "ECCENTRICITY": 0.00962533, "INCLINATION": 74.0627, "RA_OF_ASC_NODE": 320.3503, "ARG_OF_PERICENTER": 14.8263, "MEAN_ANOMALY": 104.0636, "EPHEMERIS_TYPE": 0, "CLASSIFICATION_TYPE": "U", "NORAD_CAT_ID": 34760, "ELEMENT_SET_NO": 999, "REV_AT_EPOCH": 86545, "BSTAR": 0.00087310198, "MEAN_MOTION_DOT": 1.903e-05, "MEAN_MOTION_DDOT": 0}, "tle": {"line1": "1 34760U 93036AAE 25336.65842800  .00001903  00000+0  87310-3 0  9997", "line2": "2 34760  74.0627 320.3503 0096253  14.8263 104.0636 14.19524364865450"}}, "geometry": {"type": "Point", "coordinates": [-151.8737070306233, -73.06999717447636]}}]}